CCSDS_OMM_VERS = 2.0
CREATION_DATE  = 
ORIGINATOR     = 

OBJECT_NAME    = STARLINK-36350
OBJECT_ID      = 2026-016M
CENTER_NAME    = EARTH
REF_FRAME      = TEME
TIME_SYSTEM    = UTC
MEAN_ELEMENT_THEORY = SGP/SGP4

EPOCH          = 2026-02-07T22:00:00.999936
MEAN_MOTION    = 15.80852375
ECCENTRICITY   = .00013959
INCLINATION    = 97.2787
RA_OF_ASC_NODE = 97.8632
ARG_OF_PERICENTER = 82.9082
MEAN_ANOMALY   = 214.5249

EPHEMERIS_TYPE = 0
CLASSIFICATION_TYPE = U
NORAD_CAT_ID   = 67572
ELEMENT_SET_NO = 999
REV_AT_EPOCH   = 315
BSTAR          = -.5179317E-3
MEAN_MOTION_DOT = -.98405E-3
MEAN_MOTION_DDOT = 0

CCSDS_OMM_VERS = 2.0
CREATION_DATE  = 
ORIGINATOR     = 

OBJECT_NAME    = STARLINK-36588
OBJECT_ID      = 2026-016N
CENTER_NAME    = EARTH
REF_FRAME      = TEME
TIME_SYSTEM    = UTC
MEAN_ELEMENT_THEORY = SGP/SGP4

EPOCH          = 2026-02-07T22:00:00.999936
MEAN_MOTION    = 15.80810549
ECCENTRICITY   = .0001422
INCLINATION    = 97.2812
RA_OF_ASC_NODE = 97.8662
ARG_OF_PERICENTER = 95.7404
MEAN_ANOMALY   = 210.0812

EPHEMERIS_TYPE = 0
CLASSIFICATION_TYPE = U
NORAD_CAT_ID   = 67573
ELEMENT_SET_NO = 999
REV_AT_EPOCH   = 331
BSTAR          = -.13150118E-3
MEAN_MOTION_DOT = -.25252E-3
MEAN_MOTION_DDOT = 0

CCSDS_OMM_VERS = 2.0
CREATION_DATE  = 
ORIGINATOR     = 

OBJECT_NAME    = STARLINK-36594
OBJECT_ID      = 2026-016P
CENTER_NAME    = EARTH
REF_FRAME      = TEME
TIME_SYSTEM    = UTC
MEAN_ELEMENT_THEORY = SGP/SGP4

EPOCH          = 2026-02-07T22:00:00.999936
MEAN_MOTION    = 15.80804613
ECCENTRICITY   = .00011357
INCLINATION    = 97.2807
RA_OF_ASC_NODE = 97.8675
ARG_OF_PERICENTER = 105.9555
MEAN_ANOMALY   = 204.9373

EPHEMERIS_TYPE = 0
CLASSIFICATION_TYPE = U
NORAD_CAT_ID   = 67574
ELEMENT_SET_NO = 999
REV_AT_EPOCH   = 331
BSTAR          = .54240347E-4
MEAN_MOTION_DOT = .10254E-3
MEAN_MOTION_DDOT = 0

CCSDS_OMM_VERS = 2.0
CREATION_DATE  = 
ORIGINATOR     = 

OBJECT_NAME    = STARLINK-36400
OBJECT_ID      = 2026-016Q
CENTER_NAME    = EARTH
REF_FRAME      = TEME
TIME_SYSTEM    = UTC
MEAN_ELEMENT_THEORY = SGP/SGP4

EPOCH          = 2026-02-07T22:00:00.999936
MEAN_MOTION    = 15.80824558
ECCENTRICITY   = .000159
INCLINATION    = 97.2773
RA_OF_ASC_NODE = 97.8701
ARG_OF_PERICENTER = 95.4562
MEAN_ANOMALY   = 221.0922

EPHEMERIS_TYPE = 0
CLASSIFICATION_TYPE = U
NORAD_CAT_ID   = 67575
ELEMENT_SET_NO = 999
REV_AT_EPOCH   = 320
BSTAR          = -.32141812E-3
MEAN_MOTION_DOT = -.61304E-3
MEAN_MOTION_DDOT = 0

CCSDS_OMM_VERS = 2.0
CREATION_DATE  = 
ORIGINATOR     = 

OBJECT_NAME    = STARLINK-36591
OBJECT_ID      = 2026-016R
CENTER_NAME    = EARTH
REF_FRAME      = TEME
TIME_SYSTEM    = UTC
MEAN_ELEMENT_THEORY = SGP/SGP4

EPOCH          = 2026-02-07T22:00:00.999936
MEAN_MOTION    = 15.80830214
ECCENTRICITY   = .00012684
INCLINATION    = 97.2811
RA_OF_ASC_NODE = 97.8725
ARG_OF_PERICENTER = 82.2617
MEAN_ANOMALY   = 240.1830

EPHEMERIS_TYPE = 0
CLASSIFICATION_TYPE = U
NORAD_CAT_ID   = 67576
ELEMENT_SET_NO = 999
REV_AT_EPOCH   = 326
BSTAR          = -.25719315E-3
MEAN_MOTION_DOT = -.49161E-3
MEAN_MOTION_DDOT = 0

CCSDS_OMM_VERS = 2.0
CREATION_DATE  = 
ORIGINATOR     = 

OBJECT_NAME    = STARLINK-36590
OBJECT_ID      = 2026-016S
CENTER_NAME    = EARTH
REF_FRAME      = TEME
TIME_SYSTEM    = UTC
MEAN_ELEMENT_THEORY = SGP/SGP4

EPOCH          = 2026-02-07T22:00:00.999936
MEAN_MOTION    = 15.80807719
ECCENTRICITY   = .0001487
INCLINATION    = 97.2762
RA_OF_ASC_NODE = 97.8735
ARG_OF_PERICENTER = 94.7743
MEAN_ANOMALY   = 233.1120

EPHEMERIS_TYPE = 0
CLASSIFICATION_TYPE = U
NORAD_CAT_ID   = 67577
ELEMENT_SET_NO = 999
REV_AT_EPOCH   = 326
BSTAR          = -.33762563E-3
MEAN_MOTION_DOT = -.64316E-3
MEAN_MOTION_DDOT = 0

CCSDS_OMM_VERS = 2.0
CREATION_DATE  = 
ORIGINATOR     = 

OBJECT_NAME    = STARLINK-36613
OBJECT_ID      = 2026-016T
CENTER_NAME    = EARTH
REF_FRAME      = TEME
TIME_SYSTEM    = UTC
MEAN_ELEMENT_THEORY = SGP/SGP4

EPOCH          = 2026-02-07T22:00:00.999936
MEAN_MOTION    = 15.80825276
ECCENTRICITY   = .00015714
INCLINATION    = 97.2792
RA_OF_ASC_NODE = 97.8771
ARG_OF_PERICENTER = 100.5011
MEAN_ANOMALY   = 233.9085

EPHEMERIS_TYPE = 0
CLASSIFICATION_TYPE = U
NORAD_CAT_ID   = 67578
ELEMENT_SET_NO = 999
REV_AT_EPOCH   = 326
BSTAR          = -.33964634E-3
MEAN_MOTION_DOT = -.64749E-3
MEAN_MOTION_DDOT = 0

CCSDS_OMM_VERS = 2.0
CREATION_DATE  = 
ORIGINATOR     = 

OBJECT_NAME    = STARLINK-36571
OBJECT_ID      = 2026-016U
CENTER_NAME    = EARTH
REF_FRAME      = TEME
TIME_SYSTEM    = UTC
MEAN_ELEMENT_THEORY = SGP/SGP4

EPOCH          = 2026-02-07T22:00:00.999936
MEAN_MOTION    = 15.80788228
ECCENTRICITY   = .00016388
INCLINATION    = 97.2786
RA_OF_ASC_NODE = 97.8810
ARG_OF_PERICENTER = 96.8540
MEAN_ANOMALY   = 246.0250

EPHEMERIS_TYPE = 0
CLASSIFICATION_TYPE = U
NORAD_CAT_ID   = 67579
ELEMENT_SET_NO = 999
REV_AT_EPOCH   = 326
BSTAR          = -.81448031E-4
MEAN_MOTION_DOT = -.15696E-3
MEAN_MOTION_DDOT = 0

CCSDS_OMM_VERS = 2.0
CREATION_DATE  = 
ORIGINATOR     = 

OBJECT_NAME    = STARLINK-36612
OBJECT_ID      = 2026-016V
CENTER_NAME    = EARTH
REF_FRAME      = TEME
TIME_SYSTEM    = UTC
MEAN_ELEMENT_THEORY = SGP/SGP4

EPOCH          = 2026-02-07T22:00:00.999936
MEAN_MOTION    = 15.80798815
ECCENTRICITY   = .00013551
INCLINATION    = 97.2800
RA_OF_ASC_NODE = 97.8833
ARG_OF_PERICENTER = 95.0382
MEAN_ANOMALY   = 254.1004

EPHEMERIS_TYPE = 0
CLASSIFICATION_TYPE = U
NORAD_CAT_ID   = 67580
ELEMENT_SET_NO = 999
REV_AT_EPOCH   = 326
BSTAR          = -.18509753E-3
MEAN_MOTION_DOT = -.35425E-3
MEAN_MOTION_DDOT = 0

CCSDS_OMM_VERS = 2.0
CREATION_DATE  = 
ORIGINATOR     = 

OBJECT_NAME    = STARLINK-36632
OBJECT_ID      = 2026-016W
CENTER_NAME    = EARTH
REF_FRAME      = TEME
TIME_SYSTEM    = UTC
MEAN_ELEMENT_THEORY = SGP/SGP4

EPOCH          = 2026-02-07T22:00:00.999936
MEAN_MOTION    = 15.80880960
ECCENTRICITY   = .00013258
INCLINATION    = 97.2785
RA_OF_ASC_NODE = 97.8913
ARG_OF_PERICENTER = 71.2020
MEAN_ANOMALY   = 295.8833

EPHEMERIS_TYPE = 0
CLASSIFICATION_TYPE = U
NORAD_CAT_ID   = 67581
ELEMENT_SET_NO = 999
REV_AT_EPOCH   = 326
BSTAR          = -.59743716E-3
MEAN_MOTION_DOT = -.113442E-2
MEAN_MOTION_DDOT = 0

CCSDS_OMM_VERS = 2.0
CREATION_DATE  = 
ORIGINATOR     = 

OBJECT_NAME    = STARLINK-36609
OBJECT_ID      = 2026-016X
CENTER_NAME    = EARTH
REF_FRAME      = TEME
TIME_SYSTEM    = UTC
MEAN_ELEMENT_THEORY = SGP/SGP4

EPOCH          = 2026-02-07T22:00:00.999936
MEAN_MOTION    = 15.80641087
ECCENTRICITY   = .00014357
INCLINATION    = 97.2768
RA_OF_ASC_NODE = 97.8935
ARG_OF_PERICENTER = 70.2033
MEAN_ANOMALY   = 303.0581

EPHEMERIS_TYPE = 0
CLASSIFICATION_TYPE = U
NORAD_CAT_ID   = 67582
ELEMENT_SET_NO = 999
REV_AT_EPOCH   = 326
BSTAR          = -.1158405E-1
MEAN_MOTION_DOT = -.1920728E-1
MEAN_MOTION_DDOT = 0

CCSDS_OMM_VERS = 2.0
CREATION_DATE  = 
ORIGINATOR     = 

OBJECT_NAME    = STARLINK-36577
OBJECT_ID      = 2026-016Y
CENTER_NAME    = EARTH
REF_FRAME      = TEME
TIME_SYSTEM    = UTC
MEAN_ELEMENT_THEORY = SGP/SGP4

EPOCH          = 2026-02-07T22:00:00.999936
MEAN_MOTION    = 15.80805655
ECCENTRICITY   = .00012711
INCLINATION    = 97.2776
RA_OF_ASC_NODE = 97.8862
ARG_OF_PERICENTER = 72.1608
MEAN_ANOMALY   = 285.3632

EPHEMERIS_TYPE = 0
CLASSIFICATION_TYPE = U
NORAD_CAT_ID   = 67583
ELEMENT_SET_NO = 999
REV_AT_EPOCH   = 326
BSTAR          = -.11354716E-3
MEAN_MOTION_DOT = -.21826E-3
MEAN_MOTION_DDOT = 0

