STARLINK-36350          
1 67572U 26016M   26038.91667824 -.00098405  00000+0 -51793-3 0  9999
2 67572  97.2787  97.8632 0001395  82.9082 214.5249 15.80852375  3151
STARLINK-36588          
1 67573U 26016N   26038.91667824 -.00025252  00000+0 -13150-3 0  9995
2 67573  97.2812  97.8662 0001422  95.7404 210.0812 15.80810549  3317
STARLINK-36594          
1 67574U 26016P   26038.91667824  .00010254  00000+0  54240-4 0  9996
2 67574  97.2807  97.8675 0001135 105.9555 204.9373 15.80804613  3317
STARLINK-36400          
1 67575U 26016Q   26038.91667824 -.00061304  00000+0 -32142-3 0  9997
2 67575  97.2773  97.8701 0001590  95.4562 221.0922 15.80824558  3204
STARLINK-36591          
1 67576U 26016R   26038.91667824 -.00049161  00000+0 -25719-3 0  9997
2 67576  97.2811  97.8725 0001268  82.2617 240.1830 15.80830214  3263
STARLINK-36590          
1 67577U 26016S   26038.91667824 -.00064316  00000+0 -33763-3 0  9995
2 67577  97.2762  97.8735 0001487  94.7743 233.1120 15.80807719  3269
STARLINK-36613          
1 67578U 26016T   26038.91667824 -.00064749  00000+0 -33965-3 0  9990
2 67578  97.2792  97.8771 0001571 100.5011 233.9085 15.80825276  3267
STARLINK-36571          
1 67579U 26016U   26038.91667824 -.00015696  00000+0 -81448-4 0  9998
2 67579  97.2786  97.8810 0001638  96.8540 246.0250 15.80788228  3267
STARLINK-36612          
1 67580U 26016V   26038.91667824 -.00035425  00000+0 -18510-3 0  9991
2 67580  97.2800  97.8833 0001355  95.0382 254.1004 15.80798815  3262
STARLINK-36632          
1 67581U 26016W   26038.91667824 -.00113442  00000+0 -59744-3 0  9992
2 67581  97.2785  97.8913 0001325  71.2020 295.8833 15.80880960  3261
STARLINK-36609          
1 67582U 26016X   26038.91667824 -.01920728  00000+0 -11584-1 0  9995
2 67582  97.2768  97.8935 0001435  70.2033 303.0581 15.80641087  3269
STARLINK-36577          
1 67583U 26016Y   26038.91667824 -.00021826  00000+0 -11355-3 0  9994
2 67583  97.2776  97.8862 0001271  72.1608 285.3632 15.80805655  3267
